NORAD_CAT_ID,OBJECT_NAME,OBJECT_TYPE,EPOCH,MEAN_MOTION,ECCENTRICITY,INCLINATION,RA_OF_ASC_NODE,ARG_OF_PERICENTER,MEAN_ANOMALY,BSTAR,MEAN_MOTION_DOT,MEAN_MOTION_DDOT,TLE_LINE0,TLE_LINE1,TLE_LINE2,SEMIMAJOR_AXIS,PERIOD,APOGEE,PERIGEE,DECAYED
52275.0,STARLINK-3784,PAYLOAD,2023-02-10 12:22:47,15.08844999,0.0001279,53.2146,111.2538,85.5536,274.5602,0.00062022,9.598e-05,0.0,0 STARLINK-3784,1 52275U 22041Q   23041.51583295  .00009598  00000-0  62022-3 0  9994,2 52275  53.2146 111.2538 0001279  85.5536 274.5602 15.08844999 44805,6917.865,95.437,540.615,538.845,0.0
52275.0,STARLINK-3784,PAYLOAD,2023-02-10 21:55:07,15.08839176,0.0001663,53.2151,109.4706,66.8044,293.3123,0.00035324,5.338e-05,0.0,0 STARLINK-3784,1 52275U 22041Q   23041.91327744  .00005338  00000-0  35324-3 0  9996,2 52275  53.2151 109.4706 0001663  66.8044 293.3123 15.08839176 44864,6917.883,95.438,540.898,538.597,0.0
52275.0,STARLINK-3784,PAYLOAD,2023-02-11 10:38:12,15.08844707,0.0001672,53.2149,107.0896,77.178,282.9399,0.0002881,4.301e-05,0.0,0 STARLINK-3784,1 52275U 22041Q   23042.44319631  .00004301  00000-0  28810-3 0  9992,2 52275  53.2149 107.0896 0001672  77.1780 282.9399 15.08844707 46156,6917.866,95.437,540.888,538.574,0.0
52275.0,STARLINK-3784,PAYLOAD,2023-02-12 04:07:26,15.08843458,0.0001498,53.2146,103.8195,93.1388,266.9776,0.00030251,4.53e-05,0.0,0 STARLINK-3784,1 52275U 22041Q   23043.17183626  .00004530  00000-0  30251-3 0  9992,2 52275  53.2146 103.8195 0001498  93.1388 266.9776 15.08843458 46262,6917.87,95.437,540.771,538.699,0.0
52275.0,STARLINK-3784,PAYLOAD,2023-02-12 13:39:45,15.0884746,0.0001296,53.2136,102.035,82.7527,277.3613,0.0002722,4.048e-05,0.0,0 STARLINK-3784,1 52275U 22041Q   23043.56927393  .00004048  00000-0  27220-3 0  9998,2 52275  53.2136 102.0350 0001296  82.7527 277.3613 15.08847460 45116,6917.858,95.437,540.619,538.826,0.0
52275.0,STARLINK-3784,PAYLOAD,2023-02-13 03:58:13,15.08837674,0.000131,53.2152,99.3583,83.4605,276.6536,1.4502e-05,-5.7e-07,0.0,0 STARLINK-3784,1 52275U 22041Q   23044.16543709 -.00000057  00000-0  14502-4 0  9997,2 52275  53.2152  99.3583 0001310  83.4605 276.6536 15.08837674 46418,6917.887,95.438,540.659,538.846,0.0
52275.0,STARLINK-3784,PAYLOAD,2023-02-13 10:19:46,15.08848433,0.0001634,53.2139,98.169,88.2783,271.8396,0.00023395,3.438e-05,0.0,0 STARLINK-3784,1 52275U 22041Q   23044.43039409  .00003438  00000-0  23395-3 0  9998,2 52275  53.2139  98.1690 0001634  88.2783 271.8396 15.08848433 46458,6917.855,95.437,540.85,538.589,0.0
52275.0,STARLINK-3784,PAYLOAD,2023-02-13 13:30:31,15.08861206,0.0001394,53.2156,97.5733,100.8385,259.2764,0.00058353,9.016e-05,0.0,0 STARLINK-3784,1 52275U 22041Q   23044.56286740  .00009016  00000-0  58353-3 0  9994,2 52275  53.2156  97.5733 0001394 100.8385 259.2764 15.08861206 45260,6917.816,95.436,540.645,538.716,0.0
52275.0,STARLINK-3784,PAYLOAD,2023-02-13 19:52:05,15.08839018,0.0001799,53.2154,96.3822,92.2133,267.9065,0.00013658,1.886e-05,0.0,0 STARLINK-3784,1 52275U 22041Q   23044.82783624  .00001886  00000-0  13658-3 0  9992,2 52275  53.2154  96.3822 0001799  92.2133 267.9065 15.08839018 46513,6917.883,95.438,540.993,538.504,0.0
52275.0,STARLINK-3784,PAYLOAD,2023-02-14 13:21:19,15.08860584,0.0001221,53.2153,93.1139,93.0797,267.0335,0.00061757,9.56e-05,0.0,0 STARLINK-3784,1 52275U 22041Q   23045.55647020  .00009560  00000-0  61757-3 0  9992,2 52275  53.2153  93.1139 0001221  93.0797 267.0335 15.08860584 45414,6917.817,95.436,540.527,538.838,0.0
52275.0,STARLINK-3784,PAYLOAD,2023-02-14 19:42:52,15.08834163,0.0001081,53.2154,91.9235,101.9143,258.1971,1.9634e-05,2.5e-07,0.0,0 STARLINK-3784,1 52275U 22041Q   23045.82143850  .00000025  00000-0  19634-4 0  9999,2 52275  53.2154  91.9235 0001081 101.9143 258.1971 15.08834163 46665,6917.898,95.438,540.511,539.015,0.0
52275.0,STARLINK-3784,PAYLOAD,2023-02-15 11:36:43,15.08849946,0.0001499,53.2162,88.9496,98.6379,261.4783,0.0003365,5.073e-05,0.0,0 STARLINK-3784,1 52275U 22041Q   23046.48383623  .00005073  00000-0  33650-3 0  9997,2 52275  53.2162  88.9496 0001499  98.6379 261.4783 15.08849946 46769,6917.85,95.437,540.752,538.678,0.0
52275.0,STARLINK-3784,PAYLOAD,2023-02-15 19:33:38,15.0885482,0.0001284,53.2152,87.4626,92.0905,268.0234,0.00047412,7.269e-05,0.0,0 STARLINK-3784,1 52275U 22041Q   23046.81503361  .00007269  00000-0  47412-3 0  9997,2 52275  53.2152  87.4626 0001284  92.0905 268.0234 15.08854820 45605,6917.835,95.437,540.588,538.812,0.0
52275.0,STARLINK-3784,PAYLOAD,2023-02-16 11:27:29,15.08869372,0.000135,53.2149,84.4885,99.9293,260.1852,0.00053281,8.209e-05,0.0,0 STARLINK-3784,1 52275U 22041Q   23047.47742222  .00008209  00000-0  53281-3 0  9997,2 52275  53.2149  84.4885 0001350  99.9293 260.1852 15.08869372 45703,6917.791,95.436,540.59,538.722,0.0
52275.0,STARLINK-3784,PAYLOAD,2023-02-16 19:24:26,15.08836157,0.0001912,53.2155,83.0006,85.3748,274.7462,-7.7594e-05,-1.523e-05,0.0,0 STARLINK-3784,1 52275U 22041Q   23047.80863660 -.00001523  00000-0 -77594-4 0  9992,2 52275  53.2155  83.0006 0001912  85.3748 274.7462 15.08836157 46960,6917.892,95.438,541.08,538.434,0.0
52275.0,STARLINK-3784,PAYLOAD,2023-02-17 03:21:22,15.08816636,0.0001104,53.2154,81.5163,103.5994,256.5121,-0.00044032,-7.284e-05,0.0,0 STARLINK-3784,1 52275U 22041Q   23048.13984380 -.00007284  00000-0 -44032-3 0  9992,2 52275  53.2154  81.5163 0001104 103.5994 256.5121 15.08816636 47012,6917.952,95.439,540.581,539.053,0.0
52275.0,STARLINK-3784,PAYLOAD,2023-02-17 11:18:18,15.08818966,0.0001183,53.2148,80.0283,98.9406,261.172,-0.0003548,-5.927e-05,0.0,0 STARLINK-3784,1 52275U 22041Q   23048.47104449 -.00005927  00000-0 -35480-3 0  9998,2 52275  53.2148  80.0283 0001183  98.9406 261.1720 15.08818966 45859,6917.945,95.439,540.628,538.991,0.0
52275.0,STARLINK-3784,PAYLOAD,2023-02-17 19:15:14,15.08822206,0.0001124,53.2149,78.5416,93.9842,266.1279,-7.4992e-05,-1.48e-05,0.0,0 STARLINK-3784,1 52275U 22041Q   23048.80224820 -.00001480  00000-0 -74992-4 0  9993,2 52275  53.2149  78.5416 0001124  93.9842 266.1279 15.08822206 47111,6917.935,95.439,540.577,539.022,0.0
52275.0,STARLINK-3784,PAYLOAD,2023-02-18 11:09:06,15.08835334,8.5e-05,53.214,75.5678,101.3167,258.792,0.00089408,0.00013968,0.0,0 STARLINK-3784,1 52275U 22041Q   23049.46465613  .00013968  00000-0  89408-3 0  9992,2 52275  53.2140  75.5678 0000850 101.3167 258.7920 15.08835334 46001,6917.895,95.438,540.348,539.172,0.0
52275.0,STARLINK-3784,PAYLOAD,2023-02-18 19:06:01,15.08852261,8.41e-05,53.2143,74.081,99.1316,260.9771,0.0011796,0.00018541,0.0,0 STARLINK-3784,1 52275U 22041Q   23049.79585401  .00018541  00000-0  11796-2 0  9992,2 52275  53.2143  74.0810 0000841  99.1316 260.9771 15.08852261 47262,6917.843,95.437,540.29,539.126,0.0
52275.0,STARLINK-3784,PAYLOAD,2023-02-19 12:35:15,15.08876442,8.03e-05,53.2145,70.8098,94.5973,265.511,0.0010371,0.00016272,0.0,0 STARLINK-3784,1 52275U 22041Q   23050.52448127  .00016272  00000-0  10371-2 0  9995,2 52275  53.2145  70.8098 0000803  94.5973 265.5110 15.08876442 46165,6917.769,95.435,540.189,539.079,0.0
52275.0,STARLINK-3784,PAYLOAD,2023-02-19 22:07:34,15.08854664,9.77e-05,53.2147,69.0257,89.5216,270.5888,0.0001775,2.539e-05,0.0,0 STARLINK-3784,1 52275U 22041Q   23050.92192297  .00002539  00000-0  17750-3 0  9993,2 52275  53.2147  69.0257 0000977  89.5216 270.5888 15.08854664 47431,6917.836,95.437,540.376,539.025,0.0
52275.0,STARLINK-3784,PAYLOAD,2023-02-20 12:26:01,15.08860849,0.0001001,53.2149,66.3488,96.801,263.3096,0.00069673,0.00010824,0.0,0 STARLINK-3784,1 52275U 22041Q   23051.51807864  .00010824  00000-0  69673-3 0  9999,2 52275  53.2149  66.3488 0001001  96.8010 263.3096 15.08860849 46310,6917.817,95.436,540.374,538.989,0.0
52275.0,STARLINK-3784,PAYLOAD,2023-02-21 05:55:16,15.08847047,0.000113,53.215,63.0776,105.6708,254.4409,0.00082208,0.00012822,0.0,0 STARLINK-3784,1 52275U 22041Q   23052.24672384  .00012822  00000-0  82208-3 0  9996,2 52275  53.2150  63.0776 0001130 105.6708 254.4409 15.08847047 47632,6917.859,95.437,540.506,538.942,0.0
52275.0,STARLINK-3784,PAYLOAD,2023-02-21 12:16:49,15.08854902,0.0001246,53.2151,61.8879,111.5822,248.5303,0.0011224,0.00017627,0.0,0 STARLINK-3784,1 52275U 22041Q   23052.51168256  .00017627  00000-0  11224-2 0  9991,2 52275  53.2151  61.8879 0001246 111.5822 248.5303 15.08854902 46469,6917.835,95.437,540.562,538.838,0.0
52275.0,STARLINK-3784,PAYLOAD,2023-02-21 17:02:59,15.08838846,0.0001424,53.2153,60.9957,95.4525,264.663,0.00049848,7.654e-05,0.0,0 STARLINK-3784,1 52275U 22041Q   23052.71040736  .00007654  00000-0  49848-3 0  9998,2 52275  53.2153  60.9957 0001424  95.4525 264.6630 15.08838846 47705,6917.884,95.438,540.734,538.764,0.0
52275.0,STARLINK-3784,PAYLOAD,2023-02-22 12:07:36,15.08849236,0.0001307,53.2159,57.4275,101.5588,258.5551,0.00081031,0.00012635,0.0,0 STARLINK-3784,1 52275U 22041Q   23053.50528592  .00012635  00000-0  81031-3 0  9992,2 52275  53.2159  57.4275 0001307 101.5588 258.5551 15.08849236 46611,6917.852,95.437,540.621,538.813,0.0
52275.0,STARLINK-3784,PAYLOAD,2023-02-22 16:53:46,15.08829104,0.0001036,53.2159,56.5348,104.1792,255.9315,-0.00011446,-2.108e-05,0.0,0 STARLINK-3784,1 52275U 22041Q   23053.70400908 -.00002108  00000-0 -11446-3 0  9993,2 52275  53.2159  56.5348 0001036 104.1792 255.9315 15.08829104 47855,6917.914,95.438,540.495,539.062,0.0
52275.0,STARLINK-3784,PAYLOAD,2023-02-23 10:23:01,15.08849123,0.0001371,53.2152,53.2643,96.8292,263.2856,0.0015119,0.00023862,0.0,0 STARLINK-3784,1 52275U 22041Q   23054.43265271  .00023862  00000-0  15119-2 0  9994,2 52275  53.2152  53.2643 0001371  96.8292 263.2856 15.08849123 47961,6917.853,95.437,540.666,538.769,0.0
52275.0,STARLINK-3784,PAYLOAD,2023-02-23 16:44:33,15.08845677,0.0001328,53.2161,52.0746,96.085,264.0293,0.00064358,9.971e-05,0.0,0 STARLINK-3784,1 52275U 22041Q   23054.69761187  .00009971  00000-0  64358-3 0  9994,2 52275  53.2161  52.0746 0001328  96.0850 264.0293 15.08845677 46790,6917.863,95.437,540.647,538.809,0.0
